CCSDS_OMM_VERS = 2.0
CREATION_DATE  = 
ORIGINATOR     = 

OBJECT_NAME    = CORAL
OBJECT_ID      = 1998-067YA
CENTER_NAME    = EARTH
REF_FRAME      = TEME
TIME_SYSTEM    = UTC
MEAN_ELEMENT_THEORY = SGP/SGP4

EPOCH          = 2026-03-27T10:17:07.752480
MEAN_MOTION    = 15.57296527
ECCENTRICITY   = .0012536
INCLINATION    = 51.6313
RA_OF_ASC_NODE = 342.8639
ARG_OF_PERICENTER = 239.6168
MEAN_ANOMALY   = 120.3585

EPHEMERIS_TYPE = 0
CLASSIFICATION_TYPE = U
NORAD_CAT_ID   = 67684
ELEMENT_SET_NO = 999
REV_AT_EPOCH   = 755
BSTAR          = .10695E-2
MEAN_MOTION_DOT = .80155E-3
MEAN_MOTION_DDOT = 0

CCSDS_OMM_VERS = 2.0
CREATION_DATE  = 
ORIGINATOR     = 

OBJECT_NAME    = GXIBA-1
OBJECT_ID      = 1998-067YB
CENTER_NAME    = EARTH
REF_FRAME      = TEME
TIME_SYSTEM    = UTC
MEAN_ELEMENT_THEORY = SGP/SGP4

EPOCH          = 2026-03-27T17:46:28.233120
MEAN_MOTION    = 15.53836913
ECCENTRICITY   = .0011854
INCLINATION    = 51.6321
RA_OF_ASC_NODE = 341.9470
ARG_OF_PERICENTER = 248.0145
MEAN_ANOMALY   = 111.9586

EPHEMERIS_TYPE = 0
CLASSIFICATION_TYPE = U
NORAD_CAT_ID   = 67685
ELEMENT_SET_NO = 999
REV_AT_EPOCH   = 759
BSTAR          = .64447E-3
MEAN_MOTION_DOT = .42071E-3
MEAN_MOTION_DDOT = 0

CCSDS_OMM_VERS = 2.0
CREATION_DATE  = 
ORIGINATOR     = 

OBJECT_NAME    = UITMSAT-2
OBJECT_ID      = 1998-067YC
CENTER_NAME    = EARTH
REF_FRAME      = TEME
TIME_SYSTEM    = UTC
MEAN_ELEMENT_THEORY = SGP/SGP4

EPOCH          = 2026-03-27T09:43:35.079168
MEAN_MOTION    = 15.54719469
ECCENTRICITY   = .0008937
INCLINATION    = 51.6320
RA_OF_ASC_NODE = 343.4609
ARG_OF_PERICENTER = 217.8888
MEAN_ANOMALY   = 142.1474

EPHEMERIS_TYPE = 0
CLASSIFICATION_TYPE = U
NORAD_CAT_ID   = 67686
ELEMENT_SET_NO = 999
REV_AT_EPOCH   = 754
BSTAR          = .7617E-3
MEAN_MOTION_DOT = .51452E-3
MEAN_MOTION_DDOT = 0

CCSDS_OMM_VERS = 2.0
CREATION_DATE  = 
ORIGINATOR     = 

OBJECT_NAME    = HMU-SAT2
OBJECT_ID      = 1998-067YD
CENTER_NAME    = EARTH
REF_FRAME      = TEME
TIME_SYSTEM    = UTC
MEAN_ELEMENT_THEORY = SGP/SGP4

EPOCH          = 2026-03-27T10:10:10.247808
MEAN_MOTION    = 15.53557567
ECCENTRICITY   = .0008492
INCLINATION    = 51.6328
RA_OF_ASC_NODE = 343.5840
ARG_OF_PERICENTER = 221.2515
MEAN_ANOMALY   = 138.7834

EPHEMERIS_TYPE = 0
CLASSIFICATION_TYPE = U
NORAD_CAT_ID   = 67687
ELEMENT_SET_NO = 999
REV_AT_EPOCH   = 746
BSTAR          = .63963E-3
MEAN_MOTION_DOT = .41264E-3
MEAN_MOTION_DDOT = 0

CCSDS_OMM_VERS = 2.0
CREATION_DATE  = 
ORIGINATOR     = 

OBJECT_NAME    = LEOPARD
OBJECT_ID      = 1998-067YE
CENTER_NAME    = EARTH
REF_FRAME      = TEME
TIME_SYSTEM    = UTC
MEAN_ELEMENT_THEORY = SGP/SGP4

EPOCH          = 2026-03-27T02:09:41.960736
MEAN_MOTION    = 15.54275853
ECCENTRICITY   = .00086502
INCLINATION    = 51.6328
RA_OF_ASC_NODE = 345.1054
ARG_OF_PERICENTER = 217.3181
MEAN_ANOMALY   = 142.7210

EPHEMERIS_TYPE = 0
CLASSIFICATION_TYPE = U
NORAD_CAT_ID   = 67688
ELEMENT_SET_NO = 999
REV_AT_EPOCH   = 741
BSTAR          = .79602331E-3
MEAN_MOTION_DOT = .52925E-3
MEAN_MOTION_DDOT = 0

CCSDS_OMM_VERS = 2.0
CREATION_DATE  = 
ORIGINATOR     = 

OBJECT_NAME    = CREW DRAGON 12
OBJECT_ID      = 2026-031A
CENTER_NAME    = EARTH
REF_FRAME      = TEME
TIME_SYSTEM    = UTC
MEAN_ELEMENT_THEORY = SGP/SGP4

EPOCH          = 2026-03-27T20:12:32.650848
MEAN_MOTION    = 15.48591753
ECCENTRICITY   = .0006212
INCLINATION    = 51.6344
RA_OF_ASC_NODE = 342.6225
ARG_OF_PERICENTER = 240.1567
MEAN_ANOMALY   = 119.8804

EPHEMERIS_TYPE = 0
CLASSIFICATION_TYPE = U
NORAD_CAT_ID   = 67796
ELEMENT_SET_NO = 999
REV_AT_EPOCH   = 55908
BSTAR          = .22728E-3
MEAN_MOTION_DOT = .1192E-3
MEAN_MOTION_DDOT = 0

CCSDS_OMM_VERS = 2.0
CREATION_DATE  = 
ORIGINATOR     = 

OBJECT_NAME    = PROGRESS-MS 33
OBJECT_ID      = 2026-058A
CENTER_NAME    = EARTH
REF_FRAME      = TEME
TIME_SYSTEM    = UTC
MEAN_ELEMENT_THEORY = SGP/SGP4

EPOCH          = 2026-03-27T20:12:32.650848
MEAN_MOTION    = 15.48591753
ECCENTRICITY   = .0006212
INCLINATION    = 51.6344
RA_OF_ASC_NODE = 342.6225
ARG_OF_PERICENTER = 240.1567
MEAN_ANOMALY   = 119.8804

EPHEMERIS_TYPE = 0
CLASSIFICATION_TYPE = U
NORAD_CAT_ID   = 68319
ELEMENT_SET_NO = 999
REV_AT_EPOCH   = 59
BSTAR          = .22728E-3
MEAN_MOTION_DOT = .1192E-3
MEAN_MOTION_DDOT = 0

